ONEWEB-0012             
1 44057U 19010A   26181.17265093  .00000065  00000+0  13536-3 0  9993
2 44057  87.9086 226.2064 0001738  85.7972 274.3357 13.16594888353273
ONEWEB-0010             
1 44058U 19010B   26181.19798429  .00000079  00000+0  17271-3 0  9995
2 44058  87.9089 226.1970 0002048 105.3321 254.8036 13.16595441353323
ONEWEB-0008             
1 44059U 19010C   26181.14731256  .00000064  00000+0  13430-3 0  9993
2 44059  87.9086 226.2025 0002279  92.4935 267.6457 13.16593197353433
ONEWEB-0007             
1 44060U 19010D   26181.26878868  .00000222  00000+0  55578-3 0  9994
2 44060  87.8997 256.6151 0001724 104.1504 255.9819 13.15549523353096
ONEWEB-0006             
1 44061U 19010E   26181.27276439  .00000219  00000+0  54756-3 0  9995
2 44061  87.9006 256.5799 0002134 100.4241 259.7130 13.15549955353142
ONEWEB-0011             
1 44062U 19010F   26181.24105596 -.00000093  00000+0 -28056-3 0  9994
2 44062  87.9009 256.5962 0002223 101.5827 258.5553 13.15548441353133
ONEWEB-0013             
1 45131U 20008A   26181.15990655  .00000738  00000+0  21048-2 0  9996
2 45131  87.8510  50.2071 0001673  48.6250 311.5020 13.09459926307765
ONEWEB-0017             
1 45132U 20008B   26181.59142335  .00000327  00000+0  89951-3 0  9991
2 45132  87.8817  33.5981 0001859  92.1650 267.9690 13.10370948309705
ONEWEB-0020             
1 45133U 20008C   26181.56083670 -.00000080  00000+0 -26479-3 0  9999
2 45133  87.8828  33.6030 0001788  83.5095 276.6236 13.10375668310093
ONEWEB-0021             
1 45134U 20008D   26181.49975595  .00000657  00000+0  18450-2 0  9995
2 45134  87.8818  33.6303 0001699  85.1385 274.9936 13.10374345310399
ONEWEB-0023             
1 45136U 20008F   26181.12901569  .00000450  00000+0  12514-2 0  9993
2 45136  87.8822  33.6870 0001901  80.8038 279.3305 13.10374245309776
ONEWEB-0024             
1 45137U 20008G   26181.55926377  .00000021  00000+0  23808-4 0  9999
2 45137  87.8834  33.5946 0001779  88.4801 271.6530 13.10374493309992
ONEWEB-0025             
1 45138U 20008H   26181.55899397 -.00000056  00000+0 -19608-3 0  9993
2 45138  87.8834  33.5845 0002278  85.4321 274.7066 13.10374374310325
ONEWEB-0026             
1 45139U 20008J   26181.51049403 -.00000327  00000+0 -95756-3 0  9994
2 45139  87.8878  18.4153 0001925  91.8016 268.3332 13.11417602312856
ONEWEB-0028             
1 45140U 20008K   26181.48590880 -.00000238  00000+0 -70603-3 0  9997
2 45140  87.8872  18.4278 0001604  69.4376 290.6924 13.11414175310365
ONEWEB-0032             
1 45141U 20008L   26181.59324012  .00000222  00000+0  59877-3 0  9993
2 45141  87.8816  33.5996 0001768  69.4673 290.6644 13.10368273310051
ONEWEB-0033             
1 45142U 20008M   26181.10948555  .00006275  00000+0  17933-1 0  9994
2 45142  87.8820  33.7026 0002074  95.3686 264.7678 13.10347422309900
ONEWEB-0035             
1 45143U 20008N   26181.12997953  .00000138  00000+0  36045-3 0  9992
2 45143  87.8817  33.6914 0001825  88.2522 271.8815 13.10371534309638
ONEWEB-0036             
1 45144U 20008P   26181.56579547  .00000329  00000+0  90587-3 0  9999
2 45144  87.8838  33.6199 0001824  78.8299 281.3033 13.10370209310113
ONEWEB-0038             
1 45145U 20008Q   26181.44451545  .00000227  00000+0  60516-3 0  9990
2 45145  87.8895  18.4390 0000811 155.6398 204.4769 13.11418374312065
ONEWEB-0039             
1 45146U 20008R   26181.49467174  .00000615  00000+0  17254-2 0  9992
2 45146  87.8821  33.6161 0001587  68.6471 291.4825 13.10374866309900
ONEWEB-0040             
1 45147U 20008S   26181.56421970  .00000304  00000+0  83597-3 0  9994
2 45147  87.8822  33.6129 0002038  78.7001 281.4356 13.10374391309618
ONEWEB-0043             
1 45149U 20008U   26181.56605038  .00002304  00000+0  65651-2 0  9997
2 45149  87.8829  33.6015 0001641  74.5466 285.5843 13.10358897309933
ONEWEB-0044             
1 45150U 20008V   26181.59481829  .00000161  00000+0  42566-3 0  9992
2 45150  87.8824  33.5966 0001803  80.4834 279.6497 13.10370893310233
ONEWEB-0045             
1 45151U 20008W   26181.51558449 -.00000132  00000+0 -40912-3 0  9991
2 45151  87.8889  18.4067 0001706  85.9356 274.1967 13.11417938312158
ONEWEB-0047             
1 45152U 20008X   26181.12970625  .00000098  00000+0  24502-3 0  9999
2 45152  87.8826  33.6885 0001685  91.9437 268.1883 13.10371418309898
ONEWEB-0048             
1 45153U 20008Y   26181.12476377  .00000617  00000+0  17301-2 0  9990
2 45153  87.8817  33.7095 0001763  87.3214 272.8115 13.10373825309504
ONEWEB-0049             
1 45154U 20008Z   26181.12800746  .00000548  00000+0  15330-2 0  9995
2 45154  87.8814  33.6982 0002116  77.5174 282.6190 13.10374469309726
ONEWEB-0051             
1 45155U 20008AA  26181.51389842 -.00000144  00000+0 -44308-3 0  9990
2 45155  87.8882  18.4137 0001826  87.4626 272.6711 13.11418848312839
ONEWEB-0052             
1 45156U 20008AB  26181.53046499 -.00000424  00000+0 -12515-2 0  9996
2 45156  87.8819  33.6050 0002027  75.9817 284.1535 13.10371944309686
