OBJECT_NAME,OBJECT_ID,EPOCH,MEAN_MOTION,ECCENTRICITY,INCLINATION,RA_OF_ASC_NODE,ARG_OF_PERICENTER,MEAN_ANOMALY,EPHEMERIS_TYPE,CLASSIFICATION_TYPE,NORAD_CAT_ID,ELEMENT_SET_NO,REV_AT_EPOCH,BSTAR,MEAN_MOTION_DOT,MEAN_MOTION_DDOT
ONEWEB-0012,2019-010A,2026-06-30T04:08:37.040352,13.16594888,.00017389,87.9086,226.2064,85.7972,274.3357,0,U,44057,999,35327,.13535919E-3,.65E-6,0
ONEWEB-0010,2019-010B,2026-06-30T04:45:05.842656,13.16595441,.00020487,87.9089,226.1970,105.3321,254.8036,0,U,44058,999,35332,.17271377E-3,.79E-6,0
ONEWEB-0008,2019-010C,2026-06-30T03:32:07.805184,13.16593197,.00022796,87.9086,226.2025,92.4935,267.6457,0,U,44059,999,35343,.13429539E-3,.64E-6,0
ONEWEB-0007,2019-010D,2026-06-30T06:27:03.341952,13.15549523,.00017245,87.8997,256.6151,104.1504,255.9819,0,U,44060,999,35309,.55577628E-3,.222E-5,0
ONEWEB-0006,2019-010E,2026-06-30T06:32:46.843296,13.15549955,.00021348,87.9006,256.5799,100.4241,259.7130,0,U,44061,999,35314,.54755746E-3,.219E-5,0
ONEWEB-0011,2019-010F,2026-06-30T05:47:07.234944,13.15548441,.00022232,87.9009,256.5962,101.5827,258.5553,0,U,44062,999,35313,-.28056173E-3,-.93E-6,0
ONEWEB-0013,2020-008A,2026-06-30T03:50:15.925920,13.09459926,.00016731,87.8510,50.2071,48.6250,311.5020,0,U,45131,999,30776,.21048338E-2,.738E-5,0
ONEWEB-0017,2020-008B,2026-06-30T14:11:38.977440,13.10370948,.00018598,87.8817,33.5981,92.1650,267.9690,0,U,45132,999,30970,.89951417E-3,.327E-5,0
ONEWEB-0020,2020-008C,2026-06-30T13:27:36.290880,13.10375668,.00017881,87.8828,33.6030,83.5095,276.6236,0,U,45133,999,31009,-.26479304E-3,-.8E-6,0
ONEWEB-0021,2020-008D,2026-06-30T11:59:38.914080,13.10374345,.00016993,87.8818,33.6303,85.1385,274.9936,0,U,45134,999,31039,.18450099E-2,.657E-5,0
ONEWEB-0023,2020-008F,2026-06-30T03:05:46.955616,13.10374245,.00019014,87.8822,33.6870,80.8038,279.3305,0,U,45136,999,30977,.12514375E-2,.45E-5,0
ONEWEB-0024,2020-008G,2026-06-30T13:25:20.389728,13.10374493,.00017798,87.8834,33.5946,88.4801,271.6530,0,U,45137,999,30999,.23807505E-4,.21E-6,0
ONEWEB-0025,2020-008H,2026-06-30T13:24:57.079008,13.10374374,.00022789,87.8834,33.5845,85.4321,274.7066,0,U,45138,999,31032,-.19608451E-3,-.56E-6,0
ONEWEB-0026,2020-008J,2026-06-30T12:15:06.684192,13.11417602,.0001925,87.8878,18.4153,91.8016,268.3332,0,U,45139,999,31285,-.95755935E-3,-.327E-5,0
ONEWEB-0028,2020-008K,2026-06-30T11:39:42.520320,13.11414175,.00016047,87.8872,18.4278,69.4376,290.6924,0,U,45140,999,31036,-.70602796E-3,-.238E-5,0
ONEWEB-0032,2020-008L,2026-06-30T14:14:15.946368,13.10368273,.00017688,87.8816,33.5996,69.4673,290.6644,0,U,45141,999,31005,.59876983E-3,.222E-5,0
ONEWEB-0033,2020-008M,2026-06-30T02:37:39.551520,13.10347422,.00020742,87.8820,33.7026,95.3686,264.7678,0,U,45142,999,30990,.17933246E-1,.6275E-4,0
ONEWEB-0035,2020-008N,2026-06-30T03:07:10.231392,13.10371534,.00018252,87.8817,33.6914,88.2522,271.8815,0,U,45143,999,30963,.36045149E-3,.138E-5,0
ONEWEB-0036,2020-008P,2026-06-30T13:34:44.728608,13.10370209,.00018244,87.8838,33.6199,78.8299,281.3033,0,U,45144,999,31011,.90586774E-3,.329E-5,0
ONEWEB-0038,2020-008Q,2026-06-30T10:40:06.134880,13.11418374,.0000811,87.8895,18.4390,155.6398,204.4769,0,U,45145,999,31206,.60515619E-3,.227E-5,0
ONEWEB-0039,2020-008R,2026-06-30T11:52:19.638336,13.10374866,.00015879,87.8821,33.6161,68.6471,291.4825,0,U,45146,999,30990,.17254474E-2,.615E-5,0
ONEWEB-0040,2020-008S,2026-06-30T13:32:28.582080,13.10374391,.00020388,87.8822,33.6129,78.7001,281.4356,0,U,45147,999,30961,.83596642E-3,.304E-5,0
ONEWEB-0043,2020-008U,2026-06-30T13:35:06.752832,13.10358897,.0001641,87.8829,33.6015,74.5466,285.5843,0,U,45149,999,30993,.65650715E-2,.2304E-4,0
ONEWEB-0044,2020-008V,2026-06-30T14:16:32.300256,13.10370893,.00018035,87.8824,33.5966,80.4834,279.6497,0,U,45150,999,31023,.42566377E-3,.161E-5,0
ONEWEB-0045,2020-008W,2026-06-30T12:22:26.499936,13.11417938,.00017065,87.8889,18.4067,85.9356,274.1967,0,U,45151,999,31215,-.40912063E-3,-.132E-5,0
ONEWEB-0047,2020-008X,2026-06-30T03:06:46.620000,13.10371418,.00016858,87.8826,33.6885,91.9437,268.1883,0,U,45152,999,30989,.24501657E-3,.98E-6,0
ONEWEB-0048,2020-008Y,2026-06-30T02:59:39.589728,13.10373825,.00017633,87.8817,33.7095,87.3214,272.8115,0,U,45153,999,30950,.17301447E-2,.617E-5,0
ONEWEB-0049,2020-008Z,2026-06-30T03:04:19.844544,13.10374469,.00021164,87.8814,33.6982,77.5174,282.6190,0,U,45154,999,30972,.15330208E-2,.548E-5,0
ONEWEB-0051,2020-008AA,2026-06-30T12:20:00.823488,13.11418848,.00018262,87.8882,18.4137,87.4626,272.6711,0,U,45155,999,31283,-.44307784E-3,-.144E-5,0
ONEWEB-0052,2020-008AB,2026-06-30T12:43:52.175136,13.10371944,.00020275,87.8819,33.6050,75.9817,284.1535,0,U,45156,999,30968,-.12514686E-2,-.424E-5,0
